IRIDIUM 166             
1 43570U 18061B   25196.73169473  .00000031  00000+0  38882-5 0  9995
2 43570  86.3983 197.3151 0002027  90.4685 269.6743 14.34217812365170
IRIDIUM 158             
1 43571U 18061C   25196.69998155  .00000014  00000+0 -19597-5 0  9992
2 43571  86.3988 197.3383 0002207  84.4713 275.6734 14.34217662365145
IRIDIUM 165             
1 43572U 18061D   25196.72536066  .00000112  00000+0  33106-4 0  9995
2 43572  86.3985 197.3674 0002212  92.1409 268.0040 14.34218093365167
IRIDIUM 155             
1 43573U 18061E   25196.54775995 -.00000012  00000+0 -11393-4 0  9997
2 43573  86.3985 197.3277 0002034  81.9135 278.2291 14.34217399365115
IRIDIUM 154             
1 43574U 18061F   25196.52873274  .00000004  00000+0 -56199-5 0  9999
2 43574  86.3989 197.4523 0002172  88.9664 271.1781 14.34217421365158
IRIDIUM 163             
1 43575U 18061G   25196.71901031 -.00000022  00000+0 -15015-4 0  9996
2 43575  86.3986 197.2989 0002306  86.0061 274.1398 14.34217404365157
IRIDIUM 156             
1 43576U 18061H   25196.55410216  .00000006  00000+0 -48468-5 0  9999
2 43576  86.3987 197.3747 0001883  83.5175 276.6235 14.34217636365119
IRIDIUM 164             
1 43577U 18061J   25196.53507442  .00000017  00000+0 -98851-6 0  9990
2 43577  86.3983 197.4174 0002175  94.4930 265.6514 14.34217816365169
